GLOBALSTAR M063         
1 26081U 00008A   24351.89942437 -.00000002  00000+0  11818-2 0  9999
2 26081  51.9937 231.6523 0004605 336.3859 132.4404 11.86167063135946
GLOBALSTAR M062         
1 26082U 00008B   24352.24074818 -.00000011  00000+0  62550-3 0  9999
2 26082  51.9849 270.8285 0007623  80.5034  85.3434 12.43453954136485
GLOBALSTAR M060         
1 26083U 00008C   24352.10235931  .00000057  00000+0  14679-2 0  9997
2 26083  51.9992 205.4831 0004448 104.7104  69.1970 12.17651834130369
GLOBALSTAR M064         
1 26084U 00008D   24352.06763231 -.00000037  00000+0  65719-3 0  9993
2 26084  52.0050 332.1830 0001773  62.1836 297.9176 11.88527010145552
GLOBALSTAR M065         
1 31571U 07020A   24352.21276351  .00000119  00000+0  12470-2 0  9995
2 31571  51.9908  60.1334 0009804 259.7477 118.5914 12.61985897810734
GLOBALSTAR M069         
1 31573U 07020C   24351.79664819 -.00000063  00000+0  23662-3 0  9994
2 31573  51.9971  20.8749 0000684 130.7347  41.7459 12.53306992811444
GLOBALSTAR M072         
1 31574U 07020D   24351.82436351 -.00000113  00000+0 -14089-3 0  9997
2 31574  52.0073 119.3055 0001097 109.8623  55.9836 12.34773460809683
GLOBALSTAR M071         
1 31576U 07020F   24352.47881537 -.00000060  00000+0  29238-3 0  9993
2 31576  52.0083  21.5774 0001567  54.5663  41.7337 12.31890632811499
